{
  "type": "FeatureCollection",
  "features": [
    {
      "type": "Feature",
      "properties": {
        "norad_id": 38833,
        "name": "GPS BIIF-3  (PRN 24)",
        "group": "gps-ops",
        "lat": 27.984583800168306,
        "lon": 174.4269268793506,
        "alt_km": 19765.86025126811,
        "timestamp": "2025-12-10T21:43:22.346885+00:00",
        "meta_object_name": "GPS BIIF-3  (PRN 24)",
        "meta_object_id": "2012-053A",
        "meta_epoch": "2025-12-09T20:38:00.572640",
        "meta_mean_motion": 2.00564945,
        "meta_eccentricity": 0.0175755,
        "meta_inclination": 53.5569,
        "meta_ra_of_asc_node": 151.3565,
        "meta_arg_of_pericenter": 63.953,
        "meta_mean_anomaly": 297.8432,
        "meta_ephemeris_type": 0,
        "meta_classification_type": "U",
        "meta_norad_cat_id": 38833,
        "meta_element_set_no": 999,
        "meta_rev_at_epoch": 9564,
        "meta_bstar": 0,
        "meta_mean_motion_dot": 6.8e-07,
        "meta_mean_motion_ddot": 0,
        "tle_line1": "1 38833U 12053A   25343.85972885  .00000068  00000+0  00000+0 0  9997",
        "tle_line2": "2 38833  53.5569 151.3565 0175755  63.9530 297.8432  2.00564945 95646"
      },
      "geometry": {
        "type": "Point",
        "coordinates": [
          174.4269268793506,
          27.984583800168306
        ]
      }
    },
    {
      "type": "Feature",
      "properties": {
        "norad_id": 39166,
        "name": "GPS BIIF-4  (PRN 27)",
        "group": "gps-ops",
        "lat": 34.638031188055834,
        "lon": 67.31113175866523,
        "alt_km": 20155.249314201672,
        "timestamp": "2025-12-10T21:43:22.346896+00:00",
        "meta_object_name": "GPS BIIF-4  (PRN 27)",
        "meta_object_id": "2013-023A",
        "meta_epoch": "2025-12-10T05:20:05.646048",
        "meta_mean_motion": 2.00565117,
        "meta_eccentricity": 0.01377338,
        "meta_inclination": 54.6542,
        "meta_ra_of_asc_node": 276.6706,
        "meta_arg_of_pericenter": 48.5876,
        "meta_mean_anomaly": 312.6029,
        "meta_ephemeris_type": 0,
        "meta_classification_type": "U",
        "meta_norad_cat_id": 39166,
        "meta_element_set_no": 999,
        "meta_rev_at_epoch": 9209,
        "meta_bstar": 0,
        "meta_mean_motion_dot": -5.9e-07,
        "meta_mean_motion_ddot": 0,
        "tle_line1": "1 39166U 13023A   25344.22228757 -.00000059  00000+0  00000+0 0  9990",
        "tle_line2": "2 39166  54.6542 276.6706 0137733  48.5876 312.6029  2.00565117 92099"
      },
      "geometry": {
        "type": "Point",
        "coordinates": [
          67.31113175866523,
          34.638031188055834
        ]
      }
    },
    {
      "type": "Feature",
      "properties": {
        "norad_id": 39533,
        "name": "GPS BIIF-5  (PRN 30)",
        "group": "gps-ops",
        "lat": 34.1449427967296,
        "lon": -52.99928568984298,
        "alt_km": 20178.0922707072,
        "timestamp": "2025-12-10T21:43:22.346908+00:00",
        "meta_object_name": "GPS BIIF-5  (PRN 30)",
        "meta_object_id": "2014-008A",
        "meta_epoch": "2025-12-09T17:13:43.085856",
        "meta_mean_motion": 2.00574232,
        "meta_eccentricity": 0.00791313,
        "meta_inclination": 53.6308,
        "meta_ra_of_asc_node": 157.0479,
        "meta_arg_of_pericenter": 226.4542,
        "meta_mean_anomaly": 132.8924,
        "meta_ephemeris_type": 0,
        "meta_classification_type": "U",
        "meta_norad_cat_id": 39533,
        "meta_element_set_no": 999,
        "meta_rev_at_epoch": 8588,
        "meta_bstar": 0,
        "meta_mean_motion_dot": 6.7e-07,
        "meta_mean_motion_ddot": 0,
        "tle_line1": "1 39533U 14008A   25343.71785979  .00000067  00000+0  00000+0 0  9997",
        "tle_line2": "2 39533  53.6308 157.0479 0079131 226.4542 132.8924  2.00574232 85882"
      },
      "geometry": {
        "type": "Point",
        "coordinates": [
          -52.99928568984298,
          34.1449427967296
        ]
      }
    },
    {
      "type": "Feature",
      "properties": {
        "norad_id": 39741,
        "name": "GPS BIIF-6  (PRN 06)",
        "group": "gps-ops",
        "lat": -50.500590953927535,
        "lon": -74.36554817590938,
        "alt_km": 20094.567454449487,
        "timestamp": "2025-12-10T21:43:22.346919+00:00",
        "meta_object_name": "GPS BIIF-6  (PRN 06)",
        "meta_object_id": "2014-026A",
        "meta_epoch": "2025-12-10T00:01:18.987744",
        "meta_mean_motion": 2.00561492,
        "meta_eccentricity": 0.00391139,
        "meta_inclination": 56.5847,
        "meta_ra_of_asc_node": 338.8829,
        "meta_arg_of_pericenter": 318.5217,
        "meta_mean_anomaly": 41.1927,
        "meta_ephemeris_type": 0,
        "meta_classification_type": "U",
        "meta_norad_cat_id": 39741,
        "meta_element_set_no": 999,
        "meta_rev_at_epoch": 8474,
        "meta_bstar": 0,
        "meta_mean_motion_dot": -8.4e-07,
        "meta_mean_motion_ddot": 0,
        "tle_line1": "1 39741U 14026A   25344.00091421 -.00000084  00000+0  00000+0 0  9993",
        "tle_line2": "2 39741  56.5847 338.8829 0039113 318.5217  41.1927  2.00561492 84742"
      },
      "geometry": {
        "type": "Point",
        "coordinates": [
          -74.36554817590938,
          -50.500590953927535
        ]
      }
    },
    {
      "type": "Feature",
      "properties": {
        "norad_id": 40105,
        "name": "GPS BIIF-7  (PRN 09)",
        "group": "gps-ops",
        "lat": -39.20220624409076,
        "lon": -49.55833104086359,
        "alt_km": 20216.236235335546,
        "timestamp": "2025-12-10T21:43:22.346931+00:00",
        "meta_object_name": "GPS BIIF-7  (PRN 09)",
        "meta_object_id": "2014-045A",
        "meta_epoch": "2025-12-09T14:09:41.937408",
        "meta_mean_motion": 2.00572274,
        "meta_eccentricity": 0.0032763,
        "meta_inclination": 55.2273,
        "meta_ra_of_asc_node": 96.0246,
        "meta_arg_of_pericenter": 119.7913,
        "meta_mean_anomaly": 240.5219,
        "meta_ephemeris_type": 0,
        "meta_classification_type": "U",
        "meta_norad_cat_id": 40105,
        "meta_element_set_no": 999,
        "meta_rev_at_epoch": 8227,
        "meta_bstar": 0,
        "meta_mean_motion_dot": 2e-08,
        "meta_mean_motion_ddot": 0,
        "tle_line1": "1 40105U 14045A   25343.59006872  .00000002  00000+0  00000+0 0  9998",
        "tle_line2": "2 40105  55.2273  96.0246 0032763 119.7913 240.5219  2.00572274 82276"
      },
      "geometry": {
        "type": "Point",
        "coordinates": [
          -49.55833104086359,
          -39.20220624409076
        ]
      }
    },
    {
      "type": "Feature",
      "properties": {
        "norad_id": 40294,
        "name": "GPS BIIF-8  (PRN 03)",
        "group": "gps-ops",
        "lat": -34.19385561381405,
        "lon": 11.8994477738989,
        "alt_km": 20244.301623225536,
        "timestamp": "2025-12-10T21:43:22.346942+00:00",
        "meta_object_name": "GPS BIIF-8  (PRN 03)",
        "meta_object_id": "2014-068A",
        "meta_epoch": "2025-12-10T11:09:30.251808",
        "meta_mean_motion": 2.00564629,
        "meta_eccentricity": 0.00607879,
        "meta_inclination": 56.8561,
        "meta_ra_of_asc_node": 38.234,
        "meta_arg_of_pericenter": 69.2281,
        "meta_mean_anomaly": 291.4749,
        "meta_ephemeris_type": 0,
        "meta_classification_type": "U",
        "meta_norad_cat_id": 40294,
        "meta_element_set_no": 999,
        "meta_rev_at_epoch": 8142,
        "meta_bstar": 0,
        "meta_mean_motion_dot": -8.9e-07,
        "meta_mean_motion_ddot": 0,
        "tle_line1": "1 40294U 14068A   25344.46493347 -.00000089  00000+0  00000+0 0  9992",
        "tle_line2": "2 40294  56.8561  38.2340 0060787  69.2281 291.4749  2.00564629 81423"
      },
      "geometry": {
        "type": "Point",
        "coordinates": [
          11.8994477738989,
          -34.19385561381405
        ]
      }
    },
    {
      "type": "Feature",
      "properties": {
        "norad_id": 40534,
        "name": "GPS BIIF-9  (PRN 26)",
        "group": "gps-ops",
        "lat": -34.244005633758896,
        "lon": 62.599703405957534,
        "alt_km": 20469.180175276524,
        "timestamp": "2025-12-10T21:43:22.346953+00:00",
        "meta_object_name": "GPS BIIF-9  (PRN 26)",
        "meta_object_id": "2015-013A",
        "meta_epoch": "2025-12-10T02:18:43.739712",
        "meta_mean_motion": 2.0056274,
        "meta_eccentricity": 0.010694,
        "meta_inclination": 53.1981,
        "meta_ra_of_asc_node": 211.9997,
        "meta_arg_of_pericenter": 38.4152,
        "meta_mean_anomaly": 322.4192,
        "meta_ephemeris_type": 0,
        "meta_classification_type": "U",
        "meta_norad_cat_id": 40534,
        "meta_element_set_no": 999,
        "meta_rev_at_epoch": 7803,
        "meta_bstar": 0,
        "meta_mean_motion_dot": 1.5e-07,
        "meta_mean_motion_ddot": 0,
        "tle_line1": "1 40534U 15013A   25344.09633958  .00000015  00000+0  00000+0 0  9991",
        "tle_line2": "2 40534  53.1981 211.9997 0106940  38.4152 322.4192  2.00562740 78033"
      },
      "geometry": {
        "type": "Point",
        "coordinates": [
          62.599703405957534,
          -34.244005633758896
        ]
      }
    }
  ]
}